YAOGAN-43 01D           
1 60461U 24148D   26068.43560480  .00010676  00000+0  37766-3 0  9999
2 60461  35.0010  61.7102 0002556 326.2473  33.8080 15.28369377 87008
STARLINK-32792          
1 62504U 25003T   26068.01709129  .00034798  00000+0  12676-2 0  9992
2 62504  43.0047 292.3353 0002838 267.8512  92.2014 15.27590551 66455
